PLEIADES 1A             
1 38012U 11076F   26195.22417880  .00000068  00000+0  24490-4 0  9990
2 38012  98.1976 269.9623 0001677  80.9118 344.3797 14.58546338775936
PLEIADES 1B             
1 39019U 12068A   26195.17711977 -.00000002  00000+0  93953-5 0  9998
2 39019  98.1948 269.8558 0001588  79.9014 280.2364 14.58533652724783
